[{"OBJECT_NAME":"STARLINK-1094","OBJECT_ID":"2020-001AD","EPOCH":"2026-03-09T22:40:26.113152","MEAN_MOTION":15.30181946,"ECCENTRICITY":0.00013179,"INCLINATION":53.1603,"RA_OF_ASC_NODE":318.3807,"ARG_OF_PERICENTER":76.5708,"MEAN_ANOMALY":283.5439,"EPHEMERIS_TYPE":0,"CLASSIFICATION_TYPE":"U","NORAD_CAT_ID":44941,"ELEMENT_SET_NO":999,"REV_AT_EPOCH":34027,"BSTAR":-8.227902e-5,"MEAN_MOTION_DOT":-2.794e-5,"MEAN_MOTION_DDOT":0},{"OBJECT_NAME":"PHISAT 2","OBJECT_ID":"2024-149C","EPOCH":"2026-03-09T18:55:12.732384","MEAN_MOTION":15.29548632,"ECCENTRICITY":0.00011753,"INCLINATION":97.3806,"RA_OF_ASC_NODE":148.6498,"ARG_OF_PERICENTER":168.623,"MEAN_ANOMALY":191.5037,"EPHEMERIS_TYPE":0,"CLASSIFICATION_TYPE":"U","NORAD_CAT_ID":60470,"ELEMENT_SET_NO":999,"REV_AT_EPOCH":8679,"BSTAR":0.00031420974,"MEAN_MOTION_DOT":8.925e-5,"MEAN_MOTION_DDOT":0}]
